0 CZ-4 DEB
1 26188U 99057CA  13281.12380693  .00002447  00000-0  41949-3 0  8561
2 26188 098.8509 337.4305 0047174 344.9948 044.6435 14.69100731719178
0 CZ-4 DEB
1 26188U 99057CA  13283.52135894  .00004448  00000-0  75371-3 0  8578
2 26188 098.8508 340.0254 0047163 337.5751 124.7805 14.69122751719524
0 CZ-4 DEB
1 26188U 99057CA  13285.82785197  .00004225  00000-0  71617-3 0  8583
2 26188 098.8514 342.5223 0047159 330.1726 083.7581 14.69137381719867
0 CZ-4 DEB
1 26188U 99057CA  13288.14743417  .00008844  00000-0  14863-2 0  8591
2 26188 098.8516 345.0340 0047157 322.7348 112.1118 14.69161570720202
0 CZ-4 DEB
1 26188U 99057CA  13289.84618663  .00007446  00000-0  12526-2 0  8606
2 26188 098.8513 346.8735 0047230 317.2515 097.0564 14.69181343720456
0 CZ-4 DEB
1 26188U 99057CA  13292.16600383  .00006485  00000-0  10917-2 0  8610
2 26188 098.8504 349.3854 0047262 309.8836 126.9841 14.69208108720790
0 CZ-4 DEB
1 26188U 99057CA  13294.48857637  .00008896  00000-0  14922-2 0  8622
2 26188 098.8499 351.9001 0047366 302.4904 171.7366 14.69233729721132
